{
  "norad_id": 64202,
  "name": "NAVSTAR 84 (USA 545)",
  "history": [
    {
      "epoch": "2026-03-28T19:32:01.199328Z",
      "apogee_km": 20207.103288272472,
      "perigee_km": 20159.46962513063,
      "latitude_deg": -1.9531412381151307,
      "longitude_deg": -86.24249053529107,
      "height_km": 20162.554764894518,
      "semi_major_axis_km": 26561.423456701552,
      "eccentricity": 0.00089667,
      "inclination_deg": 55.1842,
      "raan_deg": 34.3646,
      "arg_perigee_deg": 330.8454,
      "mean_anomaly_deg": 26.7176,
      "mean_motion_rev_day": 2.00551421
    }
  ]
}